OBJECT_NAME,OBJECT_ID,EPOCH,MEAN_MOTION,ECCENTRICITY,INCLINATION,RA_OF_ASC_NODE,ARG_OF_PERICENTER,MEAN_ANOMALY,EPHEMERIS_TYPE,CLASSIFICATION_TYPE,NORAD_CAT_ID,ELEMENT_SET_NO,REV_AT_EPOCH,BSTAR,MEAN_MOTION_DOT,MEAN_MOTION_DDOT
STARLINK-33660,2025-053P,2026-06-01T09:43:08.213088,15.27593656,.00022513,43.0028,129.2536,262.1774,97.8822,0,U,63278,999,6899,.71356447E-3,.19434E-3,0
STARLINK-33611,2025-053Q,2026-06-01T08:55:43.728096,15.27587844,.00017798,43.0043,125.5416,268.5518,91.5130,0,U,63279,999,6914,.65937903E-3,.17931E-3,0
STARLINK-33646,2025-053R,2026-06-01T22:58:44.621760,15.27575213,.00013738,42.9988,125.6567,275.6031,84.4664,0,U,63280,999,6908,.66171234E-4,.1559E-4,0
STARLINK-33665,2025-053S,2026-06-01T06:45:42.674688,15.27599025,.00017327,42.9950,129.1841,258.1048,101.9609,0,U,63281,999,6898,.12690967E-2,.34847E-3,0
STARLINK-33603,2025-053T,2026-06-01T08:14:31.514784,15.27598599,.00014857,43.0010,129.6343,271.6500,88.4181,0,U,63282,999,6898,.10842561E-2,.29712E-3,0
STARLINK-33669,2025-053U,2026-06-01T08:30:58.403232,15.27591788,.00017319,43.0013,128.8703,268.3637,91.7016,0,U,63283,999,6899,.5829272E-3,.15819E-3,0
STARLINK-33673,2025-053V,2026-06-01T07:42:24.049152,15.27597810,.00017156,43.0015,121.6784,260.3181,99.7477,0,U,63284,999,6918,.6394684E-3,.17386E-3,0
STARLINK-33662,2025-053W,2026-05-31T23:37:29.537760,15.27582481,.00007542,42.9998,131.2528,210.3193,149.7615,0,U,63285,999,6893,.42724917E-3,.11514E-3,0
STARLINK-33613,2025-053X,2026-06-01T00:08:57.090048,15.27599538,.00013398,42.9998,131.4204,243.3022,116.7693,0,U,63286,999,6893,.10098812E-2,.27648E-3,0
STARLINK-33680,2025-053Y,2026-06-03T04:36:36.626976,15.27637315,.00014269,42.9980,118.5826,270.6553,89.4135,0,U,63287,999,6932,.12346958E-2,.3393E-3,0
COSMOS 2585 (RODNIK-S 19),2025-054A,2026-06-03T20:34:24.506112,12.42866715,.0025751,82.4935,86.9385,64.5227,295.8512,0,U,63288,999,5520,.2865E-3,.5E-6,0
COSMOS 2586 (RODNIK-S 20),2025-054B,2026-06-03T19:58:52.299264,12.42876711,.0022161,82.4918,86.8571,53.4002,306.9112,0,U,63289,999,5519,-.38958E-4,.5E-7,0
COSMOS 2587 (RODNIK-S 21),2025-054C,2026-06-03T21:14:15.455040,12.42892450,.0016002,82.4974,86.9865,43.3948,316.8388,0,U,63290,999,5520,.20156E-3,.38E-6,0
2025-055A,2025-055A,2026-06-03T22:48:11.319264,15.16450996,.00158165,97.6522,294.7299,185.2711,174.8358,0,U,63291,999,6704,.51758707E-3,.10037E-3,0
2025-055B,2025-055B,2026-06-03T21:27:18.431712,15.11479802,.00363879,97.6496,295.7262,196.2708,163.7357,0,U,63292,999,6707,.46229576E-3,.7883E-4,0
2025-055C,2025-055C,2026-06-03T21:31:31.363392,15.10016381,.00430162,97.6504,295.6271,184.0356,176.0533,0,U,63293,999,6706,.45773573E-3,.7539E-4,0
2025-055D,2025-055D,2026-06-03T21:28:26.373216,15.16430610,.00154403,97.6510,294.5714,180.5780,179.5437,0,U,63294,999,6699,.47769679E-3,.925E-4,0
2025-055E,2025-055E,2026-06-03T23:08:43.628640,15.16490911,.00140113,97.6497,294.5567,175.6793,184.4563,0,U,63295,999,6700,.48289366E-3,.9363E-4,0
2025-055F,2025-055F,2026-06-03T22:16:30.774144,15.16389643,.00122726,97.6522,294.5891,166.2065,193.9505,0,U,63296,999,6699,.50916772E-3,.9843E-4,0
2025-055G,2025-055G,2026-06-03T22:20:22.807392,15.24941181,.00085223,97.6469,297.8126,192.3984,167.7045,0,U,63297,999,6721,.69376059E-3,.17247E-3,0
2025-055H,2025-055H,2026-06-03T21:18:52.142400,15.37496589,.00071215,97.6511,300.8657,186.1669,173.9488,0,U,63298,999,6740,.14171101E-2,.52367E-3,0
KINEIS-4E,2025-056A,2026-06-03T22:16:31.043712,14.72242944,.00018747,97.9029,279.1917,154.8099,205.3201,0,U,63300,999,6517,.29663617E-3,.1824E-4,0
KINEIS-4C,2025-056B,2026-06-03T22:34:28.118208,14.72252481,.00038252,97.9079,279.4257,29.1533,330.9888,0,U,63301,999,6518,.30750196E-3,.1893E-4,0
KINEIS-4D,2025-056C,2026-06-03T22:42:24.573600,14.72306074,.00031172,97.9004,279.4385,48.2396,311.9078,0,U,63302,999,6518,.30856606E-3,.1902E-4,0
KINEIS-4A,2025-056D,2026-06-03T21:53:12.618240,14.72321752,.0001332,97.9097,279.3128,27.3668,332.7610,0,U,63303,999,6517,.30419446E-3,.1875E-4,0
KINEIS-4B,2025-056E,2026-06-03T21:28:25.449600,14.72312734,.00050357,97.9109,279.3473,355.4917,4.6244,0,U,63304,999,6516,.29920873E-3,.1843E-4,0
STARLINK-11568 [DTC],2025-057A,2026-06-02T21:44:55.565088,15.70876030,.0001306,42.9995,110.5472,262.3215,97.7504,0,U,63307,999,7058,.16619E-2,.218829E-2,0
STARLINK-11575 [DTC],2025-057B,2026-06-02T22:23:08.945088,15.70883097,.0001724,43.0002,110.7604,268.6095,91.4575,0,U,63308,999,7058,.13421E-2,.175765E-2,0
STARLINK-11585 [DTC],2025-057C,2026-06-03T05:38:01.472064,15.70856273,.0001506,43.0004,108.7141,266.8263,93.2432,0,U,63309,999,7066,.16515E-2,.217239E-2,0
STARLINK-11587 [DTC],2025-057D,2026-06-02T21:22:10.279200,15.70880645,.00015828,42.9992,111.3120,256.1186,103.9505,0,U,63310,999,7057,.13226951E-2,.173148E-2,0
STARLINK-11589 [DTC],2025-057E,2026-06-03T00:32:56.496768,15.70836905,.0003634,43.0006,110.5891,290.6712,69.3766,0,U,63311,999,7059,.1265497E-2,.16521E-2,0
STARLINK-11650 [DTC],2025-057F,2026-06-02T22:39:45.142272,15.70797762,.0001783,43.0005,110.8498,246.3422,113.7258,0,U,63312,999,7061,.12252E-2,.15953E-2,0
STARLINK-11648 [DTC],2025-057G,2026-06-02T22:38:26.098368,15.70893205,.0001715,42.9998,110.8427,222.3591,137.7144,0,U,63313,999,7058,.13796E-2,.180888E-2,0
STARLINK-11640 [DTC],2025-057H,2026-06-03T21:24:12.015072,15.71023432,.00016359,42.9993,105.0486,294.1034,65.9663,0,U,63314,999,7073,.14688864E-2,.193984E-2,0
STARLINK-11652 [DTC],2025-057J,2026-06-03T21:08:53.871648,15.70878856,.00032605,42.9993,104.9575,200.1901,159.8838,0,U,63315,999,7076,.1252786E-2,.163798E-2,0
STARLINK-11645 [DTC],2025-057K,2026-06-02T22:46:05.229696,15.70792471,.0003014,43.0006,110.8859,298.7083,61.3481,0,U,63316,999,7061,.18495E-2,.243481E-2,0
STARLINK-11633 [DTC],2025-057L,2026-06-02T21:37:16.533120,15.70882053,.0002224,42.9999,110.5007,279.1190,80.9426,0,U,63317,999,7058,.13463E-2,.176332E-2,0
STARLINK-11593 [DTC],2025-057M,2026-06-02T08:00:04.999680,15.70812605,.00012792,43.0005,114.0718,276.3754,50.4651,0,U,63318,999,600,.41073444E-3,.52527E-3,0
STARLINK-11588 [DTC],2025-057N,2026-06-02T22:07:51.619872,15.70863596,.0001802,43.0006,110.6689,291.7375,68.3301,0,U,63319,999,7058,.14763E-2,.193648E-2,0
STARLINK-33671,2025-057P,2026-06-02T12:24:52.387200,15.27571536,.0001932,42.9969,261.1520,271.5719,88.4912,0,U,63320,999,6887,.68850645E-3,.18728E-3,0
STARLINK-33650,2025-057Q,2026-06-01T16:04:17.157792,15.27581846,.00015715,43.0060,276.3615,283.4737,76.5940,0,U,63321,999,6858,.91879357E-3,.25109E-3,0
STARLINK-33689,2025-057R,2026-06-01T15:53:11.091552,15.27575649,.00011547,43.0033,276.2952,258.5839,101.4883,0,U,63322,999,6862,.6354393E-3,.17262E-3,0
STARLINK-33607,2025-057S,2026-06-03T18:37:39.659808,15.27614143,.00015415,42.9996,264.6526,280.9247,79.1431,0,U,63323,999,6890,.69842097E-3,.19027E-3,0
STARLINK-33619,2025-057T,2026-06-01T09:23:35.638080,15.27596140,.0001308,43.0017,277.7028,255.3995,104.6712,0,U,63324,999,6858,.12395206E-2,.34021E-3,0
STARLINK-33612,2025-057U,2026-06-02T08:41:21.079392,15.27469661,.00012836,43.0071,272.9599,280.5087,79.5621,0,U,63325,999,6872,-.32042733E-2,-.87114E-3,0
STARLINK-33672,2025-057V,2026-06-01T16:02:25.485792,15.27591038,.00018634,43.0037,276.3289,268.0780,91.9858,0,U,63326,999,6862,.72951186E-3,.19873E-3,0
STARLINK-33625,2025-057W,2026-06-01T15:13:51.496320,15.27592961,.00024643,43.0007,269.1689,241.1534,118.9070,0,U,63327,999,6870,.96228825E-3,.26324E-3,0
STARLINK-33699,2025-057X,2026-06-02T14:29:33.048672,15.27607727,.00013248,42.9994,263.5370,283.3715,76.6989,0,U,63328,999,6881,.72001521E-3,.19621E-3,0
STARLINK-33674,2025-057Y,2026-06-02T14:33:56.376864,15.27614927,.0002398,43.0003,271.3519,303.5905,56.4718,0,U,63329,999,6876,.71696598E-3,.19541E-3,0
YUNYAO-1 43,2025-059A,2026-06-03T23:22:00.947712,15.10919705,.00141365,97.6108,336.4094,193.9911,166.0929,0,U,63344,999,6630,.23647326E-3,.3884E-4,0
YUNYAO-1 44,2025-059B,2026-06-03T21:28:03.738144,15.10944771,.00164286,97.6096,336.2896,198.1256,161.9390,0,U,63345,999,6629,.21098621E-3,.3463E-4,0
YUNYAO-1 45,2025-059C,2026-06-03T21:15:58.578624,15.10937479,.00154552,97.6121,336.4601,197.2983,162.7722,0,U,63346,999,6629,.1918197E-3,.314E-4,0
YUNYAO-1 46,2025-059D,2026-06-03T22:02:32.511840,15.10916408,.00118117,97.6116,336.3881,184.8365,175.2753,0,U,63347,999,6629,.25504022E-3,.4191E-4,0
YUNYAO-1 47,2025-059E,2026-06-03T21:58:58.608768,15.11103652,.00154952,97.6089,336.3885,198.8316,161.2342,0,U,63348,999,6629,.25807152E-3,.4268E-4,0
YUNYAO-1 48,2025-059F,2026-06-03T21:31:18.549408,15.11170482,.00148129,97.6102,336.4819,200.0115,160.0536,0,U,63349,999,6629,.21550541E-3,.3559E-4,0
LEMUR-2-UNTITLED-SC,2025-061A,2026-06-02T17:47:25.910304,15.13366349,.00175837,97.5632,129.2105,319.3416,40.6501,0,U,63351,999,6540,.26090218E-3,.4603E-4,0
LEMUR-2-ESPERANZA,2025-061B,2026-06-03T10:43:03.263520,15.13467094,.00170388,97.5640,130.0007,316.2764,43.7116,0,U,63352,999,6551,.21282038E-3,.3752E-4,0
LEMUR-2-KREMPEL-BRO2,2025-061C,2026-06-03T17:48:17.720064,15.13900723,.0017791,97.5687,130.8100,306.7841,53.1757,0,U,63353,999,6557,.26747026E-3,.4793E-4,0
LEMUR-2-THERMORAPTOR,2025-061D,2026-06-03T18:58:38.785152,15.13979874,.00173836,97.5694,130.9314,305.7340,54.2274,0,U,63354,999,6558,.25533875E-3,.4582E-4,0
LEMUR-2-NEUROSPICY,2025-061E,2026-06-03T10:23:28.830048,15.14088834,.0015369,97.5616,130.2128,311.3082,48.6825,0,U,63355,999,6553,.24142135E-3,.4338E-4,0
LEMUR-2-TILLINFINITY,2025-061F,2026-06-03T17:42:26.196480,15.14680244,.00163576,97.5604,130.7967,296.8475,63.1084,0,U,63356,999,6560,.25890052E-3,.4738E-4,0
LEMUR-2-KREMPEL-BRO1,2025-061G,2026-06-03T17:01:44.725152,15.14484842,.00170452,97.5605,130.6885,298.1961,61.7549,0,U,63357,999,6559,.21950875E-3,.3985E-4,0
LEMUR-2-LANGER2SPACE,2025-061H,2026-06-03T11:15:23.939712,15.14181758,.00152932,97.5611,130.2690,309.4835,50.5043,0,U,63358,999,6554,.25227668E-3,.4548E-4,0
